{"type":"FeatureCollection","features":[{"type":"Feature","id":"f0dd8da9-958a-44df-b51b-13bebac1ed81","geometry":{"type":"LineString","coordinates":[[94753.15, 62952.63],[94762.09, 62921.3],[94763.59, 62937.71],[94753.15, 62967.54],[94762.09, 62934.73],[94756.13, 62924.29],[94717.35, 62894.45],[94760.23, 62910.4],[94760.23, 62922.86],[94760.23, 62947.79],[94760.23, 62972.71],[94760.23, 63010.09],[94760.23, 63022.55],[94760.23, 63047.47],[94760.23, 63072.39],[94760.23, 63084.86],[94760.23, 63109.78],[94760.23, 63134.7],[94760.23, 63147.16],[94760.23, 63172.08],[94760.23, 63197],[94760.23, 63209.46],[94747.77, 63246.85],[94735.31, 63271.77],[94697.93, 63346.54],[94673.01, 63371.46],[94673.01, 63383.92],[94623.16, 63483.61],[94598.24, 63483.61],[94598.24, 63508.53],[94598.24, 63533.45],[94585.78, 63570.83],[94560.86, 63608.21],[94560.86, 63620.67],[94548.4, 63645.59],[94548.4, 63670.52],[94548.4, 63682.98],[94548.4, 63720.36],[94548.4, 63745.28],[94535.94, 63757.74],[94535.94, 63782.66],[94523.48, 63795.13],[94523.48, 63820.05],[94523.48, 63844.97],[94523.48, 63857.43],[94523.48, 63869.89],[94523.48, 63882.35],[94523.48, 63907.27],[94523.48, 63919.73],[94498.55, 63919.73],[94498.55, 63957.12],[94498.55, 63969.58],[94498.55, 63982.04],[94498.55, 64006.96],[94498.55, 64019.42],[94498.55, 64044.34],[94498.55, 64056.8],[94498.55, 64069.27],[94498.55, 64106.65],[94498.55, 64119.11],[94498.55, 64131.57],[94486.09, 64168.95],[94486.09, 64206.34],[94461.17, 64243.72],[94461.17, 64256.18],[94448.71, 64281.1],[94448.71, 64318.48],[94448.71, 64355.87],[94423.79, 64355.87],[94423.79, 64380.79],[94423.79, 64418.17],[94423.79, 64443.09],[94423.79, 64468.02],[94423.79, 64480.48],[94423.79, 64505.4],[94411.33, 64517.86],[94411.33, 64530.32],[94398.87, 64542.78],[94398.87, 64567.7],[94398.87, 64605.09],[94398.87, 64617.55],[94386.41, 64642.47],[94386.41, 64654.93],[94386.41, 64679.85],[94386.41, 64704.77],[94361.48, 64742.16],[94361.48, 64779.54],[94361.48, 64792],[94361.48, 64829.38],[94349.02, 64841.84],[94349.02, 64866.76],[94324.1, 64879.22],[94324.1, 64904.14],[94324.1, 64916.61],[94324.1, 64929.07],[94324.1, 64941.53],[94324.1, 64966.45],[94324.1, 64978.91],[94324.1, 65003.83],[94299.18, 65003.83],[94299.18, 65016.29],[94299.18, 65028.75],[94286.72, 65028.75],[94261.8, 65041.21],[94261.8, 65066.14],[94249.34, 65103.52],[94249.34, 65128.44],[94211.95, 65165.82],[94187.03, 65178.29],[94174.57, 65215.67],[94174.57, 65240.59],[94149.65, 65302.89],[94149.65, 65315.36],[94137.19, 65340.28],[94137.19, 65352.74],[94137.19, 65377.66],[94137.19, 65390.12],[94137.19, 65415.04],[94099.8, 65452.43],[94099.8, 65477.35],[94074.88, 65514.73],[94037.5, 65552.11],[94037.5, 65577.03],[94012.58, 65589.49],[94000.12, 65614.41],[93975.2, 65651.8],[93975.2, 65664.26],[93950.27, 65689.18],[93925.35, 65726.56],[93925.35, 65751.48],[93900.43, 65763.95],[93900.43, 65788.87],[93875.51, 65813.79],[93863.05, 65838.71],[93863.05, 65851.17],[93838.13, 65876.09],[93813.2, 65888.55],[93800.74, 65913.48],[93775.82, 65925.94],[93775.82, 65950.86],[93775.82, 65963.32],[93738.44, 66000.7],[93738.44, 66025.63],[93725.98, 66025.63],[93725.98, 66050.55],[93701.05, 66063.01],[93688.59, 66100.39],[93626.29, 66162.7],[93576.45, 66200.08],[93576.45, 66212.54],[93551.52, 66237.46],[93526.61, 66249.92],[93526.61, 66262.38],[93501.69, 66274.84],[93489.23, 66312.23],[93451.84, 66337.15],[93389.54, 66399.45],[93352.16, 66411.91],[93352.16, 66424.38],[93327.23, 66424.38],[93314.77, 66424.38],[93289.85, 66436.84],[93277.39, 66461.76],[93252.47, 66511.6],[93240.01, 66536.52],[93240.01, 66548.98],[93215.09, 66548.98],[93215.09, 66573.91],[93177.7, 66573.91],[93177.7, 66598.83],[93177.7, 66611.29],[93165.24, 66611.29],[93165.24, 66648.67],[93140.32, 66648.67],[93140.32, 66673.59],[93127.86, 66673.59],[93115.4, 66698.52],[93078.02, 66710.98],[93078.02, 66735.9],[93078.02, 66748.36],[93028.17, 66773.28],[93003.25, 66785.74],[92990.79, 66810.66],[92965.87, 66810.66],[92965.87, 66823.13],[92940.95, 66848.05],[92928.48, 66872.97],[92891.1, 66910.35],[92866.18, 66910.35],[92853.72, 66935.27],[92841.26, 66935.27],[92841.26, 66947.73],[92816.34, 66947.73],[92816.34, 66972.66],[92803.88, 66972.66],[92778.95, 66972.66],[92778.95, 66985.12],[92766.49, 66985.12],[92741.57, 66985.12],[92704.19, 67010.04],[92666.8, 67022.5],[92654.34, 67047.42],[92629.42, 67047.42],[92629.42, 67059.88],[92604.5, 67059.88],[92592.04, 67084.8],[92567.12, 67084.8],[92554.66, 67097.27],[92529.73, 67122.19],[92504.81, 67147.11],[92479.89, 67147.11],[92467.43, 67147.11],[92442.51, 67147.11],[92392.66, 67147.11],[92380.2, 67159.57],[92367.74, 67184.49],[92355.28, 67196.95],[92292.98, 67221.88],[92280.52, 67221.88],[92255.59, 67221.88],[92230.67, 67221.88],[92243.13, 67221.88],[92268.05, 67221.88],[92268.05, 67234.34],[92268.05, 67246.8],[92268.05, 67259.26],[92268.05, 67284.18],[92268.05, 67296.64],[92268.05, 67321.56],[92268.05, 67334.02],[92268.05, 67346.48],[92268.05, 67358.95],[92268.05, 67383.87],[92268.05, 67396.33],[92268.05, 67421.25],[92268.05, 67433.71],[92268.05, 67446.17],[92268.05, 67458.63],[92268.05, 67471.09],[92255.59, 67471.09],[92243.13, 67508.48],[92243.13, 67533.4],[92243.13, 67545.86],[92255.59, 67583.24],[92255.59, 67595.7],[92255.59, 67620.63],[92243.13, 67633.09],[92268.05, 67658.01],[92280.52, 67658.01],[92317.9, 67682.93],[92317.9, 67770.16],[92317.9, 67795.08],[92317.9, 67807.54],[92317.9, 67820],[92317.9, 67844.92],[92317.9, 67857.38],[92280.52, 67894.76],[92268.05, 67919.68],[92243.13, 67932.14],[92255.59, 67932.14],[92268.05, 67932.14],[92243.13, 67957.06],[92243.13, 67969.52],[92230.67, 67969.52],[92230.67, 67994.45],[92205.75, 68006.91],[92193.29, 68031.83],[92168.37, 68044.29],[92155.91, 68069.21],[92143.45, 68069.21],[92130.98, 68094.13],[92106.06, 68094.13],[92031.3, 68181.36],[92031.3, 68206.28],[92006.38, 68206.28],[91956.53, 68218.74],[91807, 68343.35],[91607.63, 68343.35],[91582.7, 68343.35],[91532.86, 68330.89],[91495.48, 68330.89],[91458.09, 68330.89],[91433.17, 68305.97],[91408.25, 68305.97],[91370.87, 68305.97],[91358.41, 68305.97],[91333.48, 68305.97],[91296.1, 68281.05],[91271.18, 68281.05],[91221.34, 68268.59],[91146.57, 68231.2],[91134.11, 68218.74],[91096.73, 68193.82],[91084.27, 68181.36],[91084.27, 68156.44],[91071.81, 68156.44],[91059.35, 68143.98],[91059.35, 68131.52],[91059.35, 68106.59],[91034.43, 68106.59],[91034.43, 68069.21],[91034.43, 68056.75],[91034.43, 68031.83],[91034.43, 68006.91],[91034.43, 67994.45],[91034.43, 67969.52],[91034.43, 67957.06],[91034.43, 67932.14],[91034.43, 67907.22],[91034.43, 67894.76],[91034.43, 67869.84],[91034.43, 67857.38],[91034.43, 67832.46],[91034.43, 67807.54],[91034.43, 67795.08],[91034.43, 67757.7],[91034.43, 67732.77],[91034.43, 67707.85],[91034.43, 67682.93],[91034.43, 67670.47],[91034.43, 67645.55],[91034.43, 67620.63],[91034.43, 67608.16],[91034.43, 67583.24],[91034.43, 67570.78],[91034.43, 67545.86],[91034.43, 67520.94],[91034.43, 67508.48],[91034.43, 67483.55],[91046.89, 67471.09],[91046.89, 67446.17],[91046.89, 67421.25],[91046.89, 67408.79],[91046.89, 67383.87],[91046.89, 67371.41],[91046.89, 67358.95],[91046.89, 67346.48],[91046.89, 67334.02],[91046.89, 67321.56],[91046.89, 67296.64],[91059.35, 67296.64],[91059.35, 67284.18],[91059.35, 67259.26],[91059.35, 67246.8],[91046.89, 67221.88],[91059.35, 67209.41],[91059.35, 67196.95],[91071.81, 67184.49],[91071.81, 67159.57],[91059.35, 67122.19],[91059.35, 67109.73],[91059.35, 67097.27],[91059.35, 67072.34],[91059.35, 67034.96],[91059.35, 67010.04],[91059.35, 66997.58],[91059.35, 66985.12],[91059.35, 66972.66],[91059.35, 66947.73],[91059.35, 66935.27],[91059.35, 66910.35],[91059.35, 66897.89],[91059.35, 66872.97],[91059.35, 66860.51],[91059.35, 66823.13],[91059.35, 66798.2],[91059.35, 66785.74],[91059.35, 66773.28],[91059.35, 66760.82],[91034.43, 66735.9],[91021.97, 66698.52],[91021.97, 66673.59],[91021.97, 66636.21],[90997.05, 66598.83],[90997.05, 66573.91],[90997.05, 66548.98],[90997.05, 66536.52],[90997.05, 66511.6],[90997.05, 66499.14],[90997.05, 66486.68],[90997.05, 66474.22],[90997.05, 66449.3],[91009.51, 66449.3],[91009.51, 66436.84],[91009.51, 66411.91],[91034.43, 66411.91],[91034.43, 66399.45],[91046.89, 66386.99],[91046.89, 66374.53],[91071.81, 66349.61],[91071.81, 66337.15],[91084.27, 66312.23],[91109.19, 66312.23],[91109.19, 66299.77],[91109.19, 66262.38],[91109.19, 66237.46],[91134.11, 66200.08],[91134.11, 66187.62],[91146.57, 66175.16],[91159.03, 66162.7],[91159.03, 66150.23],[91159.03, 66137.77],[91196.41, 66100.39],[91196.41, 66087.93],[91208.88, 66075.47],[91208.88, 66063.01],[91233.8, 66050.55],[91233.8, 66038.09],[91233.8, 66025.63],[91258.72, 66000.7],[91271.18, 66000.7],[91271.18, 65975.78],[91296.1, 65975.78],[91308.56, 65963.32],[91308.56, 65938.4],[91308.56, 65925.94],[91345.95, 65925.94],[91345.95, 65913.48],[91358.41, 65901.02],[91370.87, 65901.02],[91395.79, 65876.09],[91408.25, 65876.09],[91408.25, 65863.63],[91433.17, 65863.63],[91458.09, 65838.71],[91470.55, 65838.71],[91470.55, 65826.25],[91470.55, 65813.79],[91470.55, 65801.33],[91495.48, 65776.41],[91495.48, 65751.48],[91520.4, 65739.02],[91520.4, 65714.1],[91532.86, 65676.72],[91557.78, 65639.34],[91570.24, 65639.34],[91607.63, 65626.88],[91632.55, 65601.95],[91645.01, 65601.95],[91682.39, 65589.49],[91707.31, 65577.03],[91719.77, 65564.57],[91744.7, 65564.57],[91757.16, 65539.65],[91769.62, 65539.65],[91794.54, 65527.19],[91831.92, 65527.19],[91844.38, 65527.19],[91869.3, 65502.27],[91906.69, 65502.27],[91919.15, 65502.27],[91919.15, 65489.81],[91944.07, 65489.81],[91956.53, 65489.81],[91968.99, 65489.81],[91981.45, 65489.81],[92006.38, 65464.89],[92018.84, 65464.89],[92043.76, 65464.89],[92043.76, 65452.43],[92068.68, 65452.43],[92093.6, 65452.43],[92106.06, 65439.96],[92130.98, 65439.96],[92168.37, 65439.96],[92168.37, 65427.5],[92180.83, 65427.5],[92205.75, 65402.58],[92218.21, 65402.58],[92243.13, 65402.58],[92280.52, 65377.66],[92292.98, 65377.66],[92305.44, 65365.2],[92330.36, 65365.2],[92342.82, 65340.28],[92367.74, 65327.82],[92367.74, 65302.89],[92380.2, 65302.89],[92405.13, 65290.43],[92405.13, 65265.51],[92417.59, 65265.51],[92417.59, 65253.05],[92417.59, 65228.13],[92442.51, 65228.13],[92442.51, 65215.67],[92442.51, 65203.21],[92467.43, 65190.75],[92479.89, 65165.82],[92479.89, 65153.36],[92504.81, 65128.44],[92504.81, 65103.52],[92504.81, 65091.06],[92504.81, 65066.14],[92504.81, 65041.21],[92504.81, 65028.75],[92504.81, 65003.83],[92504.81, 64991.37],[92479.89, 64991.37],[92479.89, 64966.45],[92467.43, 64966.45],[92454.97, 64929.07],[92454.97, 64904.14],[92454.97, 64891.68],[92430.05, 64891.68],[92430.05, 64879.22],[92430.05, 64866.76],[92430.05, 64841.84],[92417.59, 64841.84],[92417.59, 64829.38],[92392.66, 64829.38],[92392.66, 64804.46],[92380.2, 64779.54],[92355.28, 64767.08],[92342.82, 64742.16],[92317.9, 64729.7],[92280.52, 64704.77],[92268.05, 64692.31],[92230.67, 64667.39],[92207.45, 64652.12],[92193.29, 64630.01],[92168.37, 64630.01],[92168.37, 64617.55],[92143.45, 64592.63],[92130.98, 64580.16],[92106.06, 64555.24],[92081.14, 64555.24],[92068.68, 64542.78],[92043.76, 64542.78],[92031.3, 64542.78],[92018.84, 64542.78],[91981.45, 64530.32],[91968.99, 64530.32],[91944.07, 64530.32],[91931.61, 64517.86],[91894.23, 64505.4],[91869.3, 64505.4],[91856.84, 64492.94],[91831.92, 64492.94],[91819.46, 64468.02],[91807, 64468.02],[91732.23, 64468.02],[91707.31, 64468.02],[91657.47, 64468.02],[91632.55, 64468.02],[91582.7, 64468.02],[91545.32, 64468.02],[91507.94, 64468.02],[91495.48, 64468.02],[91433.17, 64468.02],[91358.41, 64468.02],[91321.02, 64468.02],[91296.1, 64468.02],[91283.64, 64468.02],[91208.88, 64468.02],[91159.03, 64468.02],[91146.57, 64468.02],[91109.19, 64468.02],[91034.43, 64455.55],[90997.05, 64455.55],[90972.13, 64455.55],[90984.59, 64455.55],[91009.51, 64455.55],[91009.51, 64430.63],[91009.51, 64418.17],[91009.51, 64355.87],[91009.51, 64330.95],[91009.51, 64318.48],[91009.51, 64293.56],[91009.51, 64268.64],[91009.51, 64256.18],[91009.51, 64231.26],[91009.51, 64218.8],[91009.51, 64193.88],[91009.51, 64181.41],[91009.51, 64156.49],[91009.51, 64144.03],[91009.51, 64106.65],[90997.05, 64094.19],[90984.59, 64069.27],[90984.59, 64056.8],[91009.51, 64031.88],[91009.51, 64006.96],[91009.51, 63994.5],[91009.51, 63957.12],[91021.97, 63907.27],[91021.97, 63882.35],[91021.97, 63869.89],[91021.97, 63857.43],[91046.89, 63844.97],[91046.89, 63832.51],[91046.89, 63807.59],[91071.81, 63782.66],[91084.27, 63770.2],[91109.19, 63732.82],[91109.19, 63707.9],[91121.65, 63682.98],[91121.65, 63670.52],[91146.57, 63670.52],[91159.03, 63645.59],[91183.95, 63633.13],[91183.95, 63608.21],[91208.88, 63608.21],[91208.88, 63595.75],[91246.26, 63595.75],[91246.26, 63570.83],[91271.18, 63558.37],[91271.18, 63533.45],[91283.64, 63533.45],[91308.56, 63533.45],[91321.02, 63533.45],[91345.95, 63533.45],[91358.41, 63533.45],[91370.87, 63508.53],[91383.33, 63508.53],[91408.25, 63508.53],[91420.71, 63508.53],[91445.63, 63496.07],[91458.09, 63496.07],[91470.55, 63496.07],[91483.02, 63471.14],[91532.86, 63471.14],[91570.24, 63458.68],[91607.63, 63458.68],[91620.09, 63433.76],[91645.01, 63433.76],[91682.39, 63433.76],[91694.85, 63433.76],[91719.77, 63421.3],[91719.77, 63408.84],[91744.7, 63408.84],[91757.16, 63408.84],[91782.08, 63396.38],[91782.08, 63383.92],[91794.54, 63383.92],[91819.46, 63383.92],[91819.46, 63371.46],[91844.38, 63371.46],[91856.84, 63371.46],[91881.77, 63371.46],[91919.15, 63346.54],[91944.07, 63334.07],[91968.99, 63334.07],[91981.45, 63334.07],[92018.84, 63309.15],[92043.76, 63309.15],[92081.14, 63296.69],[92093.6, 63296.69],[92118.52, 63271.77],[92155.91, 63271.77],[92180.83, 63271.77],[92218.21, 63271.77],[92230.67, 63271.77],[92255.59, 63271.77],[92280.52, 63271.77],[92292.98, 63271.77],[92342.82, 63271.77],[92355.28, 63271.77],[92442.51, 63271.77],[92479.89, 63259.31],[92542.2, 63259.31],[92579.58, 63259.31],[92592.04, 63259.31],[92616.96, 63234.39],[92629.42, 63234.39],[92679.27, 63234.39],[92691.73, 63234.39],[92716.65, 63234.39],[92754.03, 63221.93],[92778.95, 63221.93],[92803.88, 63197],[92841.26, 63197],[92853.72, 63197],[92878.64, 63197],[92891.1, 63197],[92903.56, 63197],[92903.56, 63184.54],[92916.02, 63184.54],[92940.95, 63184.54],[93015.71, 63184.54],[93028.17, 63184.54],[93053.09, 63184.54],[93090.48, 63184.54],[93127.86, 63184.54],[93152.78, 63184.54],[93202.63, 63184.54],[93227.55, 63184.54],[93277.39, 63184.54],[93314.77, 63184.54],[93377.08, 63184.54],[93414.46, 63184.54],[93451.84, 63184.54],[93489.23, 63184.54],[93514.15, 63184.54],[93526.61, 63184.54],[93576.45, 63159.62],[93588.91, 63159.62],[93651.21, 63159.62],[93688.59, 63147.16],[93725.98, 63147.16],[93763.36, 63122.24],[93813.2, 63109.78],[93850.59, 63109.78],[93875.51, 63109.78],[93900.43, 63084.86],[93950.27, 63084.86],[93975.2, 63072.39],[93987.66, 63072.39],[94012.58, 63072.39],[94025.04, 63047.47],[94099.8, 63035.01],[94162.11, 63035.01],[94174.57, 63010.09],[94199.49, 63010.09],[94211.95, 63010.09],[94224.41, 63010.09],[94286.72, 63010.09],[94373.95, 62997.63],[94423.79, 62972.71],[94473.63, 62960.25],[94511.02, 62960.25],[94548.4, 62935.32],[94573.32, 62935.32],[94585.78, 62935.32],[94610.7, 62922.86],[94648.09, 62922.86],[94710.39, 62897.94],[94722.85, 62897.94],[94722.85, 62897.94],[94762.09, 62916.83],[94760.6, 62954.12],[94757.63, 63012.29]]},"properties":{"objectType":"annotation","name":"INV"}}]}