{"type":"FeatureCollection","features":[{"type":"Feature","id":"94ef3f65-f87f-4591-97ad-f4708bcfad98","geometry":{"type":"LineString","coordinates":[[22133.42, 18141.93],[22139.01, 18136.34],[22139.01, 18130.75],[22144.59, 18119.58],[22144.59, 18113.99],[22144.59, 18102.81],[22144.59, 18097.22],[22144.59, 18086.05],[22133.42, 18058.11],[22133.42, 18052.52],[22144.59, 18041.35],[22150.18, 18035.76],[22161.36, 18035.76],[22161.36, 18024.58],[22161.36, 18018.99],[22172.53, 18018.99],[22178.12, 18018.99],[22189.3, 18007.82],[22194.88, 17996.64],[22211.65, 17974.29],[22222.82, 17974.29],[22228.41, 17963.12],[22239.59, 17946.35],[22239.59, 17940.76],[22239.59, 17929.59],[22250.76, 17924],[22261.94, 17924],[22278.7, 17907.24],[22284.29, 17896.06],[22306.64, 17890.47],[22317.82, 17879.3],[22317.82, 17873.71],[22317.82, 17862.53],[22328.99, 17856.95],[22334.58, 17856.95],[22334.58, 17845.77],[22345.76, 17845.77],[22351.35, 17834.59],[22362.52, 17834.59],[22379.29, 17834.59],[22379.29, 17829.01],[22390.46, 17829.01],[22390.46, 17817.83],[22401.64, 17812.24],[22407.22, 17812.24],[22418.4, 17812.24],[22435.16, 17806.65],[22440.75, 17806.65],[22451.93, 17806.65],[22468.69, 17806.65],[22491.04, 17806.65],[22502.22, 17806.65],[22530.16, 17806.65],[22530.16, 17795.48],[22535.75, 17795.48],[22541.33, 17795.48],[22558.1, 17795.48],[22563.69, 17795.48],[22580.45, 17795.48],[22586.04, 17795.48],[22591.63, 17795.48],[22591.63, 17784.3],[22602.8, 17784.3],[22608.39, 17778.71],[22619.56, 17778.71],[22619.56, 17767.54],[22625.15, 17767.54],[22630.74, 17767.54],[22630.74, 17761.95],[22641.92, 17750.78],[22647.5, 17750.78],[22647.5, 17745.19],[22658.68, 17734.01],[22658.68, 17722.84],[22658.68, 17717.25],[22658.68, 17706.07],[22664.27, 17700.48],[22664.27, 17689.31],[22664.27, 17678.13],[22675.44, 17672.54],[22675.44, 17650.19],[22675.44, 17644.61],[22681.03, 17644.61],[22681.03, 17639.02],[22681.03, 17633.43],[22681.03, 17627.84],[22692.21, 17622.25],[22692.21, 17611.08],[22697.79, 17605.49],[22708.97, 17599.9],[22720.15, 17583.14],[22725.73, 17566.38],[22725.73, 17560.79],[22731.32, 17560.79],[22736.91, 17549.61],[22753.67, 17544.02],[22764.85, 17527.26],[22776.03, 17527.26],[22776.03, 17521.67],[22781.61, 17521.67],[22798.38, 17516.08],[22809.55, 17510.5],[22826.32, 17510.5],[22859.84, 17510.5],[22882.19, 17510.5],[22887.78, 17510.5],[22915.72, 17521.67],[22932.48, 17527.26],[22971.6, 17527.26],[22982.78, 17527.26],[22988.36, 17527.26],[22988.36, 17538.44],[22999.54, 17544.02],[22999.54, 17555.2],[22999.54, 17566.38],[22999.54, 17577.55],[22999.54, 17594.31],[23016.3, 17611.08],[23033.07, 17633.43],[23033.07, 17644.61],[23033.07, 17650.19],[23038.65, 17661.37],[23044.24, 17666.96],[23044.24, 17672.54],[23049.83, 17678.13],[23061.01, 17689.31],[23061.01, 17694.9],[23061.01, 17706.07],[23066.59, 17711.66],[23072.18, 17722.84],[23072.18, 17728.42],[23072.18, 17734.01],[23072.18, 17739.6],[23077.77, 17761.95],[23077.77, 17767.54],[23094.53, 17812.24],[23105.71, 17890.47],[23105.71, 17907.24],[23105.71, 17918.41],[23111.3, 17918.41],[23122.47, 17918.41],[23122.47, 17907.24],[23128.06, 17884.88],[23128.06, 17873.71],[23128.06, 17868.12],[23128.06, 17862.53],[23128.06, 17851.36],[23128.06, 17845.77],[23128.06, 17834.59],[23128.06, 17823.42],[23128.06, 17817.83],[23128.06, 17806.65],[23128.06, 17801.07],[23133.65, 17789.89],[23133.65, 17784.3],[23133.65, 17773.13],[23139.24, 17750.78],[23150.41, 17750.78],[23161.59, 17745.19],[23167.18, 17734.01],[23178.35, 17734.01],[23178.35, 17722.84],[23178.35, 17717.25],[23183.94, 17706.07],[23195.12, 17700.48],[23200.7, 17700.48],[23211.88, 17700.48],[23211.88, 17689.31],[23217.47, 17683.72],[23228.64, 17683.72],[23228.64, 17678.13],[23228.64, 17672.54],[23239.82, 17672.54],[23239.82, 17661.37],[23273.35, 17655.78],[23278.93, 17644.61],[23312.46, 17622.25],[23312.46, 17616.67],[23318.05, 17611.08],[23334.81, 17599.9],[23351.58, 17583.14],[23357.16, 17577.55],[23385.1, 17560.79],[23390.69, 17560.79],[23401.87, 17544.02],[23413.04, 17544.02],[23418.63, 17532.85],[23424.22, 17527.26],[23429.81, 17527.26],[23429.81, 17516.08],[23440.98, 17516.08],[23452.16, 17504.91],[23463.33, 17499.32],[23468.92, 17499.32],[23480.1, 17488.14],[23485.69, 17482.56],[23496.86, 17482.56],[23496.86, 17476.97],[23502.45, 17476.97],[23513.63, 17476.97],[23524.8, 17471.38],[23541.56, 17471.38],[23552.74, 17460.21],[23558.33, 17460.21],[23569.5, 17454.62],[23569.5, 17443.44],[23580.68, 17443.44],[23586.27, 17437.85],[23597.44, 17437.85],[23614.21, 17426.68],[23614.21, 17421.09],[23630.97, 17409.91],[23642.15, 17398.74],[23647.73, 17398.74],[23653.32, 17398.74],[23658.91, 17398.74],[23670.09, 17393.15],[23692.44, 17393.15],[23703.61, 17381.97],[23753.9, 17365.21],[23832.13, 17354.04],[23837.72, 17354.04],[23871.25, 17354.04],[23882.43, 17354.04],[23893.6, 17354.04],[23904.78, 17354.04],[23921.54, 17354.04],[23938.3, 17354.04],[23960.66, 17365.21],[23977.42, 17370.8],[23988.6, 17370.8],[23994.18, 17370.8],[24005.36, 17370.8],[24016.54, 17370.8],[24022.12, 17370.8],[24033.3, 17370.8],[24050.06, 17381.97],[24066.83, 17381.97],[24078, 17381.97],[24083.59, 17381.97],[24094.77, 17381.97],[24100.35, 17381.97],[24100.35, 17387.56],[24111.53, 17393.15],[24128.29, 17415.5],[24150.64, 17437.85],[24161.82, 17443.44],[24161.82, 17454.62],[24206.52, 17460.21],[24228.88, 17460.21],[24245.64, 17460.21],[24262.4, 17460.21],[24273.58, 17460.21],[24284.75, 17460.21],[24290.34, 17465.79],[24307.11, 17465.79],[24318.28, 17465.79],[24335.04, 17476.97],[24351.81, 17476.97],[24368.57, 17482.56],[24407.69, 17504.91],[24424.45, 17510.5],[24435.63, 17521.67],[24463.57, 17583.14],[24480.33, 17599.9],[24491.51, 17616.67],[24508.27, 17661.37],[24580.91, 17829.01],[24592.09, 17845.77],[24597.68, 17862.53],[24608.85, 17868.12],[24625.62, 17879.3],[24631.2, 17884.88],[24642.38, 17896.06],[24653.55, 17901.65],[24664.73, 17912.82],[24681.49, 17929.59],[24687.08, 17929.59],[24703.85, 17940.76],[24737.37, 17957.53],[24754.14, 17968.7],[24754.14, 17974.29],[24765.31, 17974.29],[24770.9, 17985.47],[24782.08, 17991.05],[24782.08, 18002.23],[24787.66, 18002.23],[24793.25, 18002.23],[24798.84, 18007.82],[24810.02, 18018.99],[24815.6, 18018.99],[24826.78, 18030.17],[24832.37, 18030.17],[24843.54, 18030.17],[24849.13, 18046.93],[24860.31, 18046.93],[24860.31, 18058.11],[24860.31, 18063.7],[24865.89, 18063.7],[24865.89, 18074.87],[24871.48, 18074.87],[24882.66, 18097.22],[24888.25, 18108.4],[24899.42, 18125.16],[24905.01, 18125.16],[24916.19, 18136.34],[24916.19, 18141.93],[24916.19, 18153.1],[24916.19, 18164.28],[24927.36, 18186.63],[24927.36, 18197.81],[24927.36, 18208.98],[24944.13, 18208.98],[24955.3, 18208.98],[24955.3, 18220.16],[24949.71, 18236.92],[24938.54, 18253.69],[24938.54, 18276.04],[24932.95, 18292.8],[24916.19, 18326.33],[24910.6, 18331.92],[24910.6, 18337.5],[24910.6, 18348.68],[24910.6, 18354.27],[24910.6, 18371.03],[24910.6, 18382.21],[24910.6, 18387.79],[24910.6, 18398.97],[24910.6, 18404.56],[24910.6, 18415.73],[24910.6, 18432.5],[24910.6, 18438.09],[24910.6, 18460.44],[24910.6, 18471.61],[24910.6, 18488.38],[24910.6, 18499.55],[24910.6, 18516.32],[24910.6, 18527.49],[24910.6, 18533.08],[24910.6, 18549.84],[24910.6, 18561.02],[24916.19, 18572.2],[24921.77, 18600.13],[24921.77, 18611.31],[24921.77, 18616.9],[24921.77, 18622.49],[24921.77, 18639.25],[24921.77, 18650.43],[24921.77, 18656.01],[24910.6, 18656.01],[24910.6, 18661.6],[24910.6, 18678.37],[24893.83, 18695.13],[24882.66, 18711.89],[24882.66, 18717.48],[24882.66, 18728.66],[24877.07, 18728.66],[24865.89, 18728.66],[24849.13, 18739.83],[24849.13, 18745.42],[24832.37, 18756.6],[24798.84, 18773.36],[24770.9, 18806.89],[24765.31, 18823.65],[24754.14, 18834.83],[24742.96, 18868.35],[24748.55, 18885.12],[24748.55, 18896.29],[24748.55, 18901.88],[24748.55, 18913.06],[24742.96, 18918.64],[24742.96, 18929.82],[24742.96, 18941],[24742.96, 18946.58],[24742.96, 18974.52],[24742.96, 18980.11],[24742.96, 18991.29],[24742.96, 19008.05],[24742.96, 19024.81],[24742.96, 19035.99],[24748.55, 19041.58],[24748.55, 19058.34],[24754.14, 19069.52],[24754.14, 19086.28],[24754.14, 19091.87],[24754.14, 19103.04],[24754.14, 19119.81],[24754.14, 19125.4],[24754.14, 19142.16],[24754.14, 19158.92],[24742.96, 19164.51],[24742.96, 19175.69],[24742.96, 19181.28],[24742.96, 19192.45],[24742.96, 19198.04],[24742.96, 19209.21],[24742.96, 19220.39],[24731.79, 19237.15],[24731.79, 19242.74],[24731.79, 19259.51],[24726.2, 19270.68],[24715.02, 19287.45],[24709.43, 19293.03],[24703.85, 19298.62],[24698.26, 19309.8],[24698.26, 19332.15],[24681.49, 19337.74],[24681.49, 19348.91],[24664.73, 19360.09],[24659.14, 19382.44],[24642.38, 19399.2],[24625.62, 19410.38],[24620.03, 19410.38],[24608.85, 19410.38],[24608.85, 19415.97],[24603.26, 19415.97],[24586.5, 19415.97],[24586.5, 19421.55],[24575.32, 19421.55],[24569.74, 19421.55],[24558.56, 19421.55],[24547.38, 19421.55],[24541.8, 19421.55],[24530.62, 19421.55],[24519.45, 19421.55],[24508.27, 19421.55],[24502.68, 19421.55],[24502.68, 19415.97],[24491.51, 19415.97],[24485.92, 19415.97],[24469.15, 19399.2],[24452.39, 19388.03],[24452.39, 19382.44],[24441.21, 19371.26],[24441.21, 19365.68],[24441.21, 19354.5],[24435.63, 19348.91],[24435.63, 19343.32],[24435.63, 19326.56],[24424.45, 19320.97],[24413.28, 19298.62],[24413.28, 19281.86],[24407.69, 19270.68],[24407.69, 19259.51],[24407.69, 19253.92],[24396.51, 19242.74],[24396.51, 19225.98],[24396.51, 19220.39],[24374.16, 19192.45],[24362.98, 19186.86],[24357.4, 19170.1],[24346.22, 19158.92],[24329.46, 19142.16],[24318.28, 19130.98],[24318.28, 19119.81],[24307.11, 19103.04],[24301.52, 19091.87],[24279.17, 19080.69],[24273.58, 19069.52],[24256.81, 19063.93],[24245.64, 19052.75],[24240.05, 19041.58],[24234.46, 19035.99],[24223.29, 19024.81],[24223.29, 19019.23],[24223.29, 19008.05],[24217.7, 19008.05],[24200.94, 19002.46],[24184.17, 18991.29],[24167.41, 18974.52],[24150.64, 18963.35],[24133.88, 18941],[24122.71, 18935.41],[24111.53, 18918.64],[24105.94, 18901.88],[24089.18, 18885.12],[24089.18, 18868.35],[24078, 18857.18],[24072.41, 18851.59],[24061.24, 18834.83],[24055.65, 18823.65],[24044.47, 18818.06],[24044.47, 18806.89],[24038.89, 18806.89],[24027.71, 18790.12],[24022.12, 18790.12],[23960.66, 18762.18],[23943.89, 18745.42],[23927.13, 18734.24],[23921.54, 18734.24],[23904.78, 18717.48],[23876.84, 18711.89],[23865.66, 18700.72],[23826.55, 18683.95],[23815.37, 18678.37],[23798.61, 18667.19],[23798.61, 18661.6],[23787.43, 18661.6],[23781.84, 18650.43],[23781.84, 18644.84],[23765.08, 18633.66],[23753.9, 18628.07],[23742.73, 18628.07],[23714.79, 18616.9],[23703.61, 18611.31],[23686.85, 18605.72],[23681.26, 18605.72],[23681.26, 18594.55],[23670.09, 18594.55],[23664.5, 18594.55],[23653.32, 18594.55],[23647.73, 18594.55],[23642.15, 18594.55],[23636.56, 18594.55],[23625.38, 18577.78],[23614.21, 18577.78],[23597.44, 18572.2],[23591.86, 18572.2],[23552.74, 18561.02],[23541.56, 18555.43],[23524.8, 18549.84],[23480.1, 18516.32],[23463.33, 18510.73],[23452.16, 18510.73],[23435.39, 18499.55],[23429.81, 18499.55],[23413.04, 18499.55],[23396.28, 18499.55],[23385.1, 18499.55],[23385.1, 18488.38],[23379.52, 18488.38],[23373.93, 18488.38],[23373.93, 18482.79],[23368.34, 18482.79],[23351.58, 18482.79],[23334.81, 18477.2],[23323.64, 18477.2],[23301.29, 18477.2],[23284.52, 18477.2],[23250.99, 18471.61],[23239.82, 18471.61],[23217.47, 18460.44],[23167.18, 18460.44],[23161.59, 18460.44],[23150.41, 18460.44],[23133.65, 18460.44],[23116.88, 18460.44],[23088.95, 18460.44],[23061.01, 18460.44],[23033.07, 18460.44],[23005.13, 18460.44],[22982.78, 18460.44],[22966.01, 18460.44],[22954.84, 18460.44],[22943.66, 18460.44],[22938.07, 18460.44],[22926.9, 18460.44],[22915.72, 18460.44],[22904.54, 18460.44],[22882.19, 18460.44],[22815.14, 18460.44],[22798.38, 18460.44],[22753.67, 18460.44],[22692.21, 18460.44],[22647.5, 18460.44],[22630.74, 18460.44],[22619.56, 18460.44],[22613.98, 18460.44],[22602.8, 18460.44],[22597.21, 18460.44],[22586.04, 18460.44],[22574.86, 18460.44],[22569.27, 18460.44],[22563.69, 18460.44],[22558.1, 18460.44],[22546.92, 18460.44],[22535.75, 18460.44],[22530.16, 18460.44],[22518.98, 18460.44],[22513.39, 18460.44],[22502.22, 18460.44],[22485.46, 18460.44],[22479.87, 18466.03],[22446.34, 18466.03],[22423.99, 18477.2],[22423.99, 18482.79],[22423.99, 18493.96],[22407.22, 18493.96],[22396.05, 18493.96],[22390.46, 18499.55],[22379.29, 18510.73],[22368.11, 18510.73],[22345.76, 18516.32],[22323.41, 18527.49],[22312.23, 18527.49],[22312.23, 18533.08],[22306.64, 18533.08],[22295.47, 18533.08],[22289.88, 18533.08],[22289.88, 18544.26],[22278.7, 18544.26],[22273.12, 18544.26],[22267.53, 18544.26],[22250.76, 18549.84],[22222.82, 18549.84],[22217.24, 18549.84],[22172.53, 18549.84],[22161.36, 18549.84],[22155.77, 18549.84],[22144.59, 18549.84],[22139.01, 18549.84],[22127.83, 18549.84],[22116.65, 18549.84],[22105.48, 18549.84],[22099.89, 18549.84],[22088.71, 18544.26],[22055.19, 18538.67],[22038.42, 18521.9],[22010.48, 18516.32],[22004.9, 18516.32],[22004.9, 18510.73],[21993.72, 18499.55],[21988.13, 18482.79],[21976.96, 18477.2],[21971.37, 18460.44],[21960.19, 18460.44],[21960.19, 18449.26],[21960.19, 18438.09],[21954.61, 18438.09],[21954.61, 18432.5],[21937.84, 18404.56],[21937.84, 18398.97],[21937.84, 18387.79],[21932.25, 18376.62],[21932.25, 18371.03],[21932.25, 18365.44],[21932.25, 18348.68],[21932.25, 18343.09],[21932.25, 18320.74],[21932.25, 18315.15],[21932.25, 18303.98],[21932.25, 18298.39],[21943.43, 18281.63],[21943.43, 18270.45],[21943.43, 18248.1],[21943.43, 18236.92],[21949.02, 18236.92],[21949.02, 18225.75],[21960.19, 18225.75],[21960.19, 18220.16],[21960.19, 18208.98],[21965.78, 18208.98],[21965.78, 18203.39],[21976.96, 18203.39],[21976.96, 18192.22],[21982.54, 18192.22],[21993.72, 18186.63],[21993.72, 18175.46],[22010.48, 18175.46],[22016.07, 18175.46],[22032.84, 18164.28],[22049.6, 18147.52],[22055.19, 18147.52],[22055.19, 18141.93],[22066.36, 18136.34],[22083.13, 18119.58],[22105.48, 18102.81],[22105.48, 18102.81],[22144.59, 18074.87],[22144.59, 18074.87]]},"properties":{"objectType":"annotation"}}]}